NORAD_CAT_ID,OBJECT_NAME,OBJECT_TYPE,EPOCH,MEAN_MOTION,ECCENTRICITY,INCLINATION,RA_OF_ASC_NODE,ARG_OF_PERICENTER,MEAN_ANOMALY,BSTAR,MEAN_MOTION_DOT,MEAN_MOTION_DDOT,TLE_LINE0,TLE_LINE1,TLE_LINE2,SEMIMAJOR_AXIS,PERIOD,APOGEE,PERIGEE,DECAYED
50174.0,STARLINK-3292,PAYLOAD,2023-08-22 00:16:17,15.08842262,0.0001374,53.2178,107.0977,86.338,273.7769,0.00012905,1.767e-05,0.0,0 STARLINK-3292,1 50174U 21125U   23234.01131790  .00001767  00000-0  12905-3 0  9995,2 50174  53.2178 107.0977 0001374  86.3380 273.7769 15.08842262 95619,6917.873,95.437,540.689,538.788,0.0
50174.0,STARLINK-3292,PAYLOAD,2023-08-22 17:45:33,15.08835255,0.0001367,53.2176,103.8287,89.2659,270.849,-1.8482e-05,-5.82e-06,0.0,0 STARLINK-3292,1 50174U 21125U   23234.73996829 -.00000582  00000-0 -18482-4 0  9999,2 50174  53.2176 103.8287 0001367  89.2659 270.8490 15.08835255 95723,6917.895,95.438,540.706,538.814,0.0
50174.0,STARLINK-3292,PAYLOAD,2023-08-23 01:42:28,15.08840654,0.0001472,53.2177,102.3424,86.419,273.697,2.9124e-05,1.76e-06,0.0,0 STARLINK-3292,1 50174U 21125U   23235.07116377  .00000176  00000-0  29124-4 0  9991,2 50174  53.2177 102.3424 0001472  86.4190 273.6970 15.08840654 95775,6917.878,95.438,540.762,538.725,0.0
50174.0,STARLINK-3292,PAYLOAD,2023-08-24 01:33:15,15.08847636,0.0001391,53.2173,97.8803,92.3781,267.737,6.2641e-05,7.09e-06,0.0,0 STARLINK-3292,1 50174U 21125U   23236.06475970  .00000709  00000-0  62641-4 0  9991,2 50174  53.2173  97.8803 0001391  92.3781 267.7370 15.08847636 96453,6917.857,95.437,540.684,538.76,0.0
50174.0,STARLINK-3292,PAYLOAD,2023-08-25 18:53:17,15.08844038,0.0001244,53.2167,90.1476,100.2361,259.8771,1.4874e-05,-5.1e-07,0.0,0 STARLINK-3292,1 50174U 21125U   23237.78700333 -.00000051  00000-0  14874-4 0  9991,2 50174  53.2167  90.1476 0001244 100.2361 259.8771 15.08844038 96199,6917.868,95.437,540.594,538.872,0.0
50174.0,STARLINK-3292,PAYLOAD,2023-08-25 20:28:40,15.08845631,0.0001289,53.2168,89.8502,97.4675,262.6464,3.2165e-05,2.24e-06,0.0,0 STARLINK-3292,1 50174U 21125U   23237.85324194  .00000224  00000-0  32165-4 0  9990,2 50174  53.2168  89.8502 0001289  97.4675 262.6464 15.08845631 96729,6917.863,95.437,540.62,538.836,0.0
50174.0,STARLINK-3292,PAYLOAD,2023-08-26 13:57:54,15.08839384,0.0001585,53.2158,86.5842,59.1495,300.9653,6.3857e-05,7.28e-06,0.0,0 STARLINK-3292,1 50174U 21125U   23238.58188652  .00000728  00000-0  63857-4 0  9999,2 50174  53.2158  86.5842 0001585  59.1495 300.9653 15.08839384 96839,6917.882,95.438,540.844,538.651,0.0
50174.0,STARLINK-3292,PAYLOAD,2023-08-26 17:08:41,15.08837849,0.000134,53.2163,85.9864,76.7498,283.3644,3.1631e-05,2.16e-06,0.0,0 STARLINK-3292,1 50174U 21125U   23238.71436794  .00000216  00000-0  31631-4 0  9994,2 50174  53.2163  85.9864 0001340  76.7498 283.3644 15.08837849 96332,6917.887,95.438,540.679,538.825,0.0
50174.0,STARLINK-3292,PAYLOAD,2023-08-26 20:19:27,15.08839573,0.0001268,53.2164,85.3905,91.047,269.0667,4.6691e-05,4.55e-06,0.0,0 STARLINK-3292,1 50174U 21125U   23238.84684558  .00000455  00000-0  46691-4 0  9998,2 50174  53.2164  85.3905 0001268  91.0470 269.0667 15.08839573 96873,6917.882,95.438,540.624,538.87,0.0
50174.0,STARLINK-3292,PAYLOAD,2023-08-27 20:10:14,15.08842581,0.0001294,53.2165,80.9304,82.3236,277.7903,6.2114e-05,7.01e-06,0.0,0 STARLINK-3292,1 50174U 21125U   23239.84044376  .00000701  00000-0  62114-4 0  9999,2 50174  53.2165  80.9304 0001294  82.3236 277.7903 15.08842581 97020,6917.872,95.437,540.633,538.842,0.0
50174.0,STARLINK-3292,PAYLOAD,2023-08-28 00:56:23,15.08846922,0.0001257,53.2165,80.0377,90.7435,269.3701,9.5792e-05,1.237e-05,0.0,0 STARLINK-3292,1 50174U 21125U   23240.03915913  .00001237  00000-0  95792-4 0  9999,2 50174  53.2165  80.0377 0001257  90.7435 269.3701 15.08846922 96535,6917.859,95.437,540.594,538.855,0.0
50174.0,STARLINK-3292,PAYLOAD,2023-08-28 16:50:15,15.08836354,0.0001393,53.2166,77.0637,96.1727,263.9424,2.3618e-05,8.8e-07,0.0,0 STARLINK-3292,1 50174U 21125U   23240.70156839  .00000088  00000-0  23618-4 0  9998,2 50174  53.2166  77.0637 0001393  96.1727 263.9424 15.08836354 96637,6917.892,95.438,540.72,538.793,0.0
50174.0,STARLINK-3292,PAYLOAD,2023-08-28 20:01:01,15.08840445,0.0001303,53.2167,76.4697,86.3425,273.7716,6.3254e-05,7.19e-06,0.0,0 STARLINK-3292,1 50174U 21125U   23240.83404526  .00000719  00000-0  63254-4 0  9992,2 50174  53.2167  76.4697 0001303  86.3425 273.7716 15.08840445 97173,6917.879,95.438,540.645,538.843,0.0
50174.0,STARLINK-3292,PAYLOAD,2023-08-29 18:16:26,15.08834587,0.0001306,53.2174,72.3066,83.915,276.1991,-2.1696e-05,-6.33e-06,0.0,0 STARLINK-3292,1 50174U 21125U   23241.76141382 -.00000633  00000-0 -21696-4 0  9994,2 50174  53.2174  72.3066 0001306  83.9150 276.1991 15.08834587 97315,6917.897,95.438,540.665,538.858,0.0
50174.0,STARLINK-3292,PAYLOAD,2023-08-29 23:02:35,15.08839292,0.0001325,53.2179,71.4147,80.4612,279.653,7.9264e-06,-1.62e-06,0.0,0 STARLINK-3292,1 50174U 21125U   23241.96013032 -.00000162  00000-0  79264-5 0  9997,2 50174  53.2179  71.4147 0001325  80.4612 279.6530 15.08839292 96826,6917.883,95.438,540.664,538.831,0.0
50174.0,STARLINK-3292,PAYLOAD,2023-08-30 19:42:35,15.08851657,0.0001318,53.2178,67.549,97.1387,262.9755,-6.7703e-06,-3.96e-06,0.0,0 STARLINK-3292,1 50174U 21125U   23242.82124331 -.00000396  00000-0 -67703-5 0  9993,2 50174  53.2178  67.5490 0001318  97.1387 262.9755 15.08851657 97473,6917.845,95.437,540.622,538.798,0.0
50174.0,STARLINK-3292,PAYLOAD,2023-08-30 22:53:21,15.08848063,0.0001239,53.2179,66.9533,94.0863,266.0271,9.2942e-05,1.192e-05,0.0,0 STARLINK-3292,1 50174U 21125U   23242.95372221  .00001192  00000-0  92942-4 0  9995,2 50174  53.2179  66.9533 0001239  94.0863 266.0271 15.08848063 96971,6917.856,95.437,540.578,538.864,0.0
50174.0,STARLINK-3292,PAYLOAD,2023-08-31 11:36:27,15.08832071,0.0001328,53.2183,64.5762,90.1361,269.9784,4.8096e-05,4.77e-06,0.0,0 STARLINK-3292,1 50174U 21125U   23243.48365506  .00000477  00000-0  48096-4 0  9998,2 50174  53.2183  64.5762 0001328  90.1361 269.9784 15.08832071 97056,6917.905,95.438,540.688,538.851,0.0
50174.0,STARLINK-3292,PAYLOAD,2023-09-01 13:02:37,15.08840325,0.0001519,53.218,59.8179,85.4618,274.6548,3.9791e-05,3.45e-06,0.0,0 STARLINK-3292,1 50174U 21125U   23244.54349356  .00000345  00000-0  39791-4 0  9997,2 50174  53.2180  59.8179 0001519  85.4618 274.6548 15.08840325 97216,6917.879,95.438,540.795,538.694,0.0
50174.0,STARLINK-3292,PAYLOAD,2023-09-01 17:48:46,15.08844712,0.0001405,53.2175,58.9246,84.7078,275.4074,5.8383e-05,6.41e-06,0.0,0 STARLINK-3292,1 50174U 21125U   23244.74220943  .00000641  00000-0  58383-4 0  9996,2 50174  53.2175  58.9246 0001405  84.7078 275.4074 15.08844712 97768,6917.866,95.437,540.703,538.759,0.0
50174.0,STARLINK-3292,PAYLOAD,2023-09-02 11:18:01,15.08838026,0.0001492,53.2144,55.6526,91.1924,268.924,7.7777e-05,9.5e-06,0.0,0 STARLINK-3292,1 50174U 21125U   23245.47085277  .00000950  00000-0  77777-4 0  9997,2 50174  53.2144  55.6526 0001492  91.1924 268.9240 15.08838026 97872,6917.886,95.438,540.784,538.719,0.0
50174.0,STARLINK-3292,PAYLOAD,2023-09-02 17:39:34,15.08839028,0.0001554,53.215,54.4632,91.8758,268.2412,6.5157e-05,7.49e-06,0.0,0 STARLINK-3292,1 50174U 21125U   23245.73581291  .00000749  00000-0  65157-4 0  9998,2 50174  53.2150  54.4632 0001554  91.8758 268.2412 15.08839028 97399,6917.883,95.438,540.823,538.673,0.0
50174.0,STARLINK-3292,PAYLOAD,2023-09-02 20:50:20,15.08843524,0.0001404,53.2173,53.8689,95.0741,265.0412,8.5191e-05,1.068e-05,0.0,0 STARLINK-3292,1 50174U 21125U   23245.86828961  .00001068  00000-0  85191-4 0  9995,2 50174  53.2173  53.8689 0001404  95.0741 265.0412 15.08843524 97932,6917.87,95.437,540.706,538.763,0.0
50174.0,STARLINK-3292,PAYLOAD,2023-09-03 11:08:48,15.08835023,0.0001398,53.2174,51.1925,98.1643,261.9508,0.00022396,3.278e-05,0.0,0 STARLINK-3292,1 50174U 21125U   23246.46445043  .00003278  00000-0  22396-3 0  9990,2 50174  53.2174  51.1925 0001398  98.1643 261.9508 15.08835023 98021,6917.896,95.438,540.728,538.793,0.0
50174.0,STARLINK-3292,PAYLOAD,2023-09-04 10:59:35,15.08835455,7.86e-05,53.2174,46.7324,81.8017,278.3064,3.4779e-05,2.66e-06,0.0,0 STARLINK-3292,1 50174U 21125U   23247.45805483  .00000266  00000-0  34779-4 0  9991,2 50174  53.2174  46.7324 0000786  81.8017 278.3064 15.08835455 97654,6917.894,95.438,540.303,539.216,0.0
50174.0,STARLINK-3292,PAYLOAD,2023-09-04 17:21:08,15.08835813,0.0001268,53.2184,45.5432,97.0458,263.0679,-3.1514e-05,-7.89e-06,0.0,0 STARLINK-3292,1 50174U 21125U   23247.72301718 -.00000789  00000-0 -31514-4 0  9999,2 50174  53.2184  45.5432 0001268  97.0458 263.0679 15.08835813 98210,6917.893,95.438,540.635,538.881,0.0
50174.0,STARLINK-3292,PAYLOAD,2023-09-05 17:11:55,15.08857174,0.0001108,53.2186,41.083,83.3893,276.7225,-0.00023265,-3.99e-05,0.0,0 STARLINK-3292,1 50174U 21125U   23248.71661132 -.00003990  00000-0 -23265-3 0  9998,2 50174  53.2186  41.0830 0001108  83.3893 276.7225 15.08857174 97849,6917.828,95.436,540.459,538.926,0.0
50174.0,STARLINK-3292,PAYLOAD,2023-09-06 09:05:47,15.08834815,0.000116,53.2184,38.1098,91.8587,268.2538,0.00010065,1.314e-05,0.0,0 STARLINK-3292,1 50174U 21125U   23249.37901840  .00001314  00000-0  10065-3 0  9994,2 50174  53.2184  38.1098 0001160  91.8587 268.2538 15.08834815 97943,6917.896,95.438,540.564,538.959,0.0
50174.0,STARLINK-3292,PAYLOAD,2023-09-06 12:16:33,15.08836204,0.0001176,53.2185,37.5153,92.3781,267.7346,0.00011068,1.474e-05,0.0,0 STARLINK-3292,1 50174U 21125U   23249.51149774  .00001474  00000-0  11068-3 0  9991,2 50174  53.2185  37.5153 0001176  92.3781 267.7346 15.08836204 98483,6917.892,95.438,540.571,538.943,0.0
50174.0,STARLINK-3292,PAYLOAD,2023-09-06 17:02:42,15.08836881,0.0001179,53.2186,36.6232,91.6941,268.4186,0.00011201,1.495e-05,0.0,0 STARLINK-3292,1 50174U 21125U   23249.71021808  .00001495  00000-0  11201-3 0  9992,2 50174  53.2186  36.6232 0001179  91.6941 268.4186 15.08836881 98510,6917.89,95.438,540.571,538.939,0.0
